ONEWEB-0387             
1 49313U 21090AL  23145.89487374  .00000060  00000+0  11565-3 0  9993
2 49313  87.9241 137.1015 0001867  92.4606 267.6741 13.20775668 82200
ONEWEB-0388             
1 49314U 21090AM  23145.57839791 -.00000007  00000+0 -50337-4 0  9997
2 49314  87.9263 167.4813 0002200  92.7565 267.3820 13.19725520 80164
ONEWEB-0389             
1 50469U 21132A   23145.73431193  .00000016  00000+0  71455-5 0  9992
2 50469  87.9185 228.0241 0001768 116.8376 243.2936 13.17648749 70799
ONEWEB-0390             
1 50470U 21132B   23145.73655760  .00000052  00000+0  99674-4 0  9994
2 50470  87.9189 228.0282 0001692 104.0204 256.1116 13.17648753 70793
ONEWEB-0391             
1 50471U 21132C   23145.73877213  .00000002  00000+0 -28855-4 0  9993
2 50471  87.9189 227.9990 0001940 109.6722 250.4619 13.17650334 70793
ONEWEB-0392             
1 50472U 21132D   23145.76781107 -.00000010  00000+0 -59993-4 0  9990
2 50472  87.9194 228.0287 0001770 105.9321 254.2005 13.17649883 70839
ONEWEB-0393             
1 50473U 21132E   23145.77787487 -.00000085  00000+0 -25118-3 0  9992
2 50473  87.9183 228.0011 0002061  85.1152 275.0215 13.17648105 70827
ONEWEB-0394             
1 50474U 21132F   23145.67821913  .00000057  00000+0  11142-3 0  9994
2 50474  87.9259 197.7447 0002123 100.8345 259.3026 13.18686857 74180
ONEWEB-0395             
1 50475U 21132G   23145.80804932  .00000403  00000+0  11006-2 0  9995
2 50475  87.8910 243.2405 0001721 105.0762 255.0556 13.11409624 69136
ONEWEB-0396             
1 50476U 21132H   23145.67188776 -.00000017  00000+0 -76406-4 0  9992
2 50476  87.9258 197.7385 0002215 103.7374 256.4005 13.18686956 74228
ONEWEB-0397             
1 50477U 21132J   23145.68664788  .00000056  00000+0  10812-3 0  9995
2 50477  87.9192 197.7419 0002200 104.6787 255.4589 13.18686837 74208
ONEWEB-0398             
1 50478U 21132K   23145.77626625 -.00000107  00000+0 -33772-3 0  9993
2 50478  87.8915 243.2397 0001399  97.8467 262.2820 13.11419546 69021
ONEWEB-0399             
1 50479U 21132L   23145.83981240 -.00000722  00000+0 -20739-2 0  9999
2 50479  87.8914 243.2391 0002346 104.2617 255.8771 13.11416741 69025
ONEWEB-0400             
1 50480U 21132M   23145.66556789  .00000005  00000+0 -19197-4 0  9999
2 50480  87.9266 197.7866 0001943  91.5355 268.5999 13.18684374 74190
ONEWEB-0401             
1 50481U 21132N   23145.70772357  .00000060  00000+0  11896-3 0  9993
2 50481  87.9258 197.7400 0002598 100.9662 259.1762 13.18685200 74204
ONEWEB-0402             
1 50482U 21132P   23145.67399723  .00000026  00000+0  32418-4 0  9998
2 50482  87.9266 197.7862 0002807  92.0326 268.1128 13.18686320 74229
ONEWEB-0403             
1 50483U 21132Q   23145.69719417  .00000034  00000+0  54085-4 0  9990
2 50483  87.9238 197.7715 0002320 104.5768 255.5621 13.18683307 74180
ONEWEB-0404             
1 50484U 21132R   23145.82075181 -.00000124  00000+0 -38587-3 0  9999
2 50484  87.8909 243.2000 0002099 122.5383 237.5948 13.11414045 69118
ONEWEB-0405             
1 50485U 21132S   23145.66453459  .00000043  00000+0  75087-4 0  9995
2 50485  87.9261 197.7474 0002715 101.0385 259.1052 13.18683658 74575
ONEWEB-0406             
1 50486U 21132T   23145.70139360  .00000065  00000+0  13221-3 0  9998
2 50486  87.9258 197.7425 0002054 112.3319 247.8031 13.18687215 74211
ONEWEB-0407             
1 50487U 21132U   23145.69507478  .00000070  00000+0  14503-3 0  9996
2 50487  87.9172 197.7581 0002296 100.7396 259.3995 13.18686412 74152
ONEWEB-0409             
1 50488U 21132V   23145.81863516 -.00000047  00000+0 -16806-3 0  9993
2 50488  87.8918 243.2095 0001601 120.3837 239.7449 13.11415525 69006
ONEWEB-0412             
1 50489U 21132W   23145.68451350  .00000685  00000+0  17044-2 0  9998
2 50489  87.9259 197.7778 0002465  97.8983 262.2429 13.18702369 74249
ONEWEB-0413             
1 50490U 21132X   23145.68875215  .00000061  00000+0  12115-3 0  9993
2 50490  87.9174 197.7777 0002648  97.5520 262.5913 13.18687120 74184
ONEWEB-0414             
1 50491U 21132Y   23145.67505916  .00000058  00000+0  11512-3 0  9997
2 50491  87.9176 197.8100 0002428 104.8853 255.2548 13.18685420 74213
ONEWEB-0417             
1 50492U 21132Z   23145.68240843  .00000032  00000+0  49717-4 0  9995
2 50492  87.9265 197.7914 0001875 104.1317 256.0023 13.18683792 74192
ONEWEB-0418             
1 50493U 21132AA  23145.69611452  .00000089  00000+0  19416-3 0  9999
2 50493  87.9263 197.7356 0001822 113.8600 246.2723 13.18685176 74258
ONEWEB-0419             
1 50494U 21132AB  23145.63394155  .00000025  00000+0  31519-4 0  9991
2 50494  87.9270 197.7687 0001700  96.4595 263.6731 13.18683453 74166
ONEWEB-0420             
1 50495U 21132AC  23145.67609044  .00000046  00000+0  82798-4 0  9990
2 50495  87.9267 197.7714 0002240  84.8133 275.3255 13.18683664 74168
ONEWEB-0421             
1 50496U 21132AD  23145.66978325  .00000028  00000+0  37250-4 0  9994
2 50496  87.9265 197.7799 0002645 103.3035 256.8392 13.18685941 74208
ONEWEB-0424             
1 50497U 21132AE  23145.70562533  .00000118  00000+0  26551-3 0  9991
2 50497  87.9263 197.7781 0001695  88.3617 271.7709 13.18686206 74236
ONEWEB-0426             
1 50498U 21132AF  23145.66765286  .00000002  00000+0 -27999-4 0  9998
2 50498  87.9262 197.7678 0002384 110.2314 249.9075 13.18688441 74175
ONEWEB-0427             
1 50499U 21132AG  23145.70348939 -.00000259  00000+0 -68945-3 0  9996
2 50499  87.9267 197.7793 0001881 106.0997 254.0342 13.18685519 74201
ONEWEB-0429             
1 50500U 21132AH  23145.69084441  .00000016  00000+0  75242-5 0  9991
2 50500  87.9247 197.7636 0002054  94.1360 266.0007 13.18681553 74173
ONEWEB-0430             
1 50501U 21132AJ  23145.68032304  .00000025  00000+0  31831-4 0  9997
2 50501  87.9221 197.7807 0001889  87.9006 272.2342 13.18682007 74219
ONEWEB-0432             
1 50502U 21132AK  23145.71194719  .00000184  00000+0  43467-3 0  9994
2 50502  87.9264 197.7774 0002116  95.5600 264.5774 13.18686944 74171
ONEWEB-0440             
1 50503U 21132AL  23145.62343082 -.00000906  00000+0 -23320-2 0  9993
2 50503  87.9252 197.8004 0002293  89.2347 270.9047 13.18672768 74151
ONEWEB-0450             
1 50504U 21132AM  23145.69297492  .00000048  00000+0  88000-4 0  9997
2 50504  87.9267 197.7956 0002452  85.0567 275.0845 13.18684736 74192
ONEWEB-0410             
1 51622U 22012A   23145.75216606 -.00000016  00000+0 -73841-4 0  9996
2 51622  87.9181 228.0805 0002351 136.1331 223.9987 13.17650606 66418
ONEWEB-0411             
1 51623U 22012B   23145.83471219  .00000707  00000+0  19876-2 0  9990
2 51623  87.8787 258.3830 0001505 102.5830 257.5466 13.10378213 62825
ONEWEB-0415             
1 51624U 22012C   23145.83161014  .00000559  00000+0  15664-2 0  9996
2 51624  87.8835 258.4024 0001549  90.7185 269.4120 13.10374604 62824
ONEWEB-0416             
1 51625U 22012D   23145.84252354  .00000621  00000+0  17426-2 0  9994
2 51625  87.8830 258.3886 0002014  95.8039 264.3318 13.10372339 62867
ONEWEB-0422             
1 51626U 22012E   23145.76110554  .00000097  00000+0  21576-3 0  9990
2 51626  87.9180 228.0784 0002880  89.0288 271.1173 13.17646360 66527
ONEWEB-0423             
1 51627U 22012F   23145.75440362  .00000022  00000+0  24013-4 0  9991
2 51627  87.9182 228.0121 0002047 105.5348 254.6010 13.17651210 66415
ONEWEB-0425             
1 51628U 22012G   23145.85185358  .00000395  00000+0  10949-2 0  9998
2 51628  87.8823 258.3829 0002435 111.8152 248.3235 13.10369092 62863
ONEWEB-0428             
1 51629U 22012H   23145.83315851  .00000618  00000+0  17331-2 0  9990
2 51629  87.8830 258.3963 0002281  90.4589 269.6799 13.10377823 62824
ONEWEB-0431             
1 51630U 22012J   23145.86118847 -.00000093  00000+0 -30235-3 0  9999
2 51630  87.8811 258.3833 0001585  76.5806 283.5497 13.10369818 62885
ONEWEB-0434             
1 51631U 22012K   23145.85498394  .00000573  00000+0  16058-2 0  9994
2 51631  87.8831 258.4016 0002290  93.1339 267.0050 13.10368655 62860
ONEWEB-0435             
1 51632U 22012L   23145.86430948 -.00000230  00000+0 -69636-3 0  9990
2 51632  87.8825 258.3902 0002353  85.3912 274.7484 13.10369781 62853
ONEWEB-0436             
1 51633U 22012M   23145.74996878  .00000054  00000+0  10466-3 0  9996
2 51633  87.9181 228.0749 0002336  95.5217 264.6181 13.17650886 66396
ONEWEB-0438             
1 51634U 22012N   23145.84718860  .00000573  00000+0  16041-2 0  9991
2 51634  87.8827 258.3941 0002113 108.2276 251.9081 13.10371117 62881
ONEWEB-0439             
1 51635U 22012P   23145.85031046  .00000723  00000+0  20351-2 0  9993
2 51635  87.8804 258.3779 0002017  95.8775 264.2582 13.10369862 62869
ONEWEB-0442             
1 51636U 22012Q   23145.74100986 -.00000002  00000+0 -38543-4 0  9998
2 51636  87.9182 228.0587 0001690 128.7134 231.4149 13.17649539 66387
ONEWEB-0443             
1 51637U 22012R   23145.75887791  .00000029  00000+0  41813-4 0  9997
2 51637  87.9180 228.0608 0002788  94.9058 265.2391 13.17650704 66434
ONEWEB-0444             
1 51638U 22012S   23145.84096596  .00000694  00000+0  19511-2 0  9999
2 51638  87.8831 258.4028 0002216  94.2651 265.8730 13.10373368 62876
ONEWEB-0445             
1 51639U 22012T   23145.86274715 -.00000145  00000+0 -45075-3 0  9991
2 51639  87.8808 258.3982 0001582 112.3449 247.7846 13.10369238 62880
ONEWEB-0446             
1 51640U 22012U   23145.83940269  .00000685  00000+0  19267-2 0  9994
2 51640  87.8830 258.3978 0001722  97.1015 263.0308 13.10372882 62868
ONEWEB-0448             
1 51641U 22012V   23145.84406684  .00000629  00000+0  17649-2 0  9994
2 51641  87.8827 258.3990 0002283  96.9600 263.1787 13.10372705 62832
ONEWEB-0449             
1 51642U 22012W   23145.84873513  .00000546  00000+0  15270-2 0  9990
2 51642  87.8828 258.3980 0002050 107.8982 252.2369 13.10372993 62845
